IRIDIUM 171             
1 43929U 19002H   25264.06415492 -.00000057  00000+0 -27548-4 0  9992
2 43929  86.3930 106.3785 0002136  79.6931 280.4506 14.34216841350383
IRIDIUM 170             
1 43930U 19002J   25264.08102143  .00000323  00000+0  47299-4 0  9991
2 43930  86.6046 106.1050 0002366  85.7156 274.4332 14.72252634359663
IRIDIUM 167             
1 43931U 19002K   25264.26711903  .00000086  00000+0  23631-4 0  9992
2 43931  86.3922 106.0373 0002483  81.2581 278.8896 14.34217371350418
IRIDIUM 181             
1 56726U 23068S   25264.24707369  .00000487  00000+0  13874-3 0  9996
2 56726  86.4579 169.1583 0002119  68.8574 291.2853 14.43311661123647
IRIDIUM 177             
1 56727U 23068T   25264.06538296  .00000594  00000+0  74672-4 0  9991
2 56727  86.1917  96.6092 0002350  81.8607 278.2881 14.80232461126559
IRIDIUM 174             
1 56728U 23068U   25264.27258417  .00000420  00000+0  62627-4 0  9994
2 56728  86.6054 106.1452 0002279  97.5131 262.6345 14.72253247126457
IRIDIUM 178             
1 56729U 23068V   25264.18971567  .00001530  00000+0  19784-3 0  9991
2 56729  86.6563 137.7939 0002563  86.5729 273.5786 14.80246206126579
IRIDIUM 179             
1 56730U 23068W   25264.18433505  .00001524  00000+0  19703-3 0  9992
2 56730  86.6821 145.9600 0002857  80.5690 279.5855 14.80248812126579
